PROGRESS-MS 32          
1 65586U 25204A   25329.18985031  .00014011  00000+0  26140-3 0  9991
2 65586  51.6313 229.3494 0003855 165.5942 194.5157 15.49065492   273
CYGNUS NG-23            
1 65616U 25208A   25329.18985031  .00014011  00000+0  26140-3 0  9999
2 65616  51.6313 229.3494 0003855 165.5942 194.5157 15.49065492   222
DRAGONFLY               
1 65729U 98067XH  25329.41083549  .00143850  00000+0  13578-2 0  9990
2 65729  51.6251 224.0765 0006159 178.8848 181.2162 15.66035145 10448
1998-067XJ              
1 65730U 98067XJ  25329.09231932  .00918179  36681-3  27351-2 0  9993
2 65730  51.6184 221.9008 0012396 182.4641 177.6306 15.91735483 10442
1998-067XK              
1 65731U 98067XK  25329.09591290  .00090943  00000+0  10147-2 0  9997
2 65731  51.6290 226.4795 0006087 152.4661 207.6657 15.62013873 10389
RSP-03                  
1 65732U 98067XL  25329.12692466  .00117113  00000+0  12086-2 0  9992
2 65732  51.6285 225.9317 0006857 154.1951 205.9387 15.63889416 10403
GHS-01                  
1 65733U 98067XM  25329.13103960  .00170259  00000+0  15075-2 0  9991
2 65733  51.6287 225.2110 0006751 176.0216 184.0835 15.67520461 10412
YOTSUBA-KULOVER         
1 65941U 98067XN  25329.13757815  .00072537  00000+0  99427-3 0  9990
2 65941  51.6302 228.2532 0002418 127.4758 232.6454 15.56702083  7119
BOTAN                   
1 65942U 98067XP  25329.10958018  .00100010  00000+0  12592-2 0  9991
2 65942  51.6298 228.0671 0004722 130.8647 229.2756 15.58820715  7113
E-KAGAKU-1              
1 65943U 98067XQ  25329.13728393  .00072759  00000+0  99786-3 0  9995
2 65943  51.6305 228.2538 0003962 114.1858 245.9549 15.56681668  7116
HRC MONOBLOCK CAMERA    
1 66052U 98067XR  25329.28052371  .00041884  00000+0  67240-3 0  9994
2 66052  51.6295 228.4551 0004707 114.6049 245.5431 15.52605893  6126
HTV-X1                  
1 66174U 25241A   25329.18985031  .00014011  00000+0  26140-3 0  9996
2 66174  51.6313 229.3494 0003855 165.5942 194.5157 15.49065492  1458
