CCSDS_OMM_VERS = 2.0
CREATION_DATE  = 
ORIGINATOR     = 

OBJECT_NAME    = PROGRESS-MS 32
OBJECT_ID      = 2025-204A
CENTER_NAME    = EARTH
REF_FRAME      = TEME
TIME_SYSTEM    = UTC
MEAN_ELEMENT_THEORY = SGP/SGP4

EPOCH          = 2025-11-25T04:33:23.066784
MEAN_MOTION    = 15.49065492
ECCENTRICITY   = .00038559
INCLINATION    = 51.6313
RA_OF_ASC_NODE = 229.3494
ARG_OF_PERICENTER = 165.5942
MEAN_ANOMALY   = 194.5157

EPHEMERIS_TYPE = 0
CLASSIFICATION_TYPE = U
NORAD_CAT_ID   = 65586
ELEMENT_SET_NO = 999
REV_AT_EPOCH   = 27
BSTAR          = .26139988E-3
MEAN_MOTION_DOT = .14011E-3
MEAN_MOTION_DDOT = 0

CCSDS_OMM_VERS = 2.0
CREATION_DATE  = 
ORIGINATOR     = 

OBJECT_NAME    = CYGNUS NG-23
OBJECT_ID      = 2025-208A
CENTER_NAME    = EARTH
REF_FRAME      = TEME
TIME_SYSTEM    = UTC
MEAN_ELEMENT_THEORY = SGP/SGP4

EPOCH          = 2025-11-25T04:33:23.066784
MEAN_MOTION    = 15.49065492
ECCENTRICITY   = .00038559
INCLINATION    = 51.6313
RA_OF_ASC_NODE = 229.3494
ARG_OF_PERICENTER = 165.5942
MEAN_ANOMALY   = 194.5157

EPHEMERIS_TYPE = 0
CLASSIFICATION_TYPE = U
NORAD_CAT_ID   = 65616
ELEMENT_SET_NO = 999
REV_AT_EPOCH   = 22
BSTAR          = .26139988E-3
MEAN_MOTION_DOT = .14011E-3
MEAN_MOTION_DDOT = 0

CCSDS_OMM_VERS = 2.0
CREATION_DATE  = 
ORIGINATOR     = 

OBJECT_NAME    = DRAGONFLY
OBJECT_ID      = 1998-067XH
CENTER_NAME    = EARTH
REF_FRAME      = TEME
TIME_SYSTEM    = UTC
MEAN_ELEMENT_THEORY = SGP/SGP4

EPOCH          = 2025-11-25T09:51:36.186336
MEAN_MOTION    = 15.66035145
ECCENTRICITY   = .0006159
INCLINATION    = 51.6251
RA_OF_ASC_NODE = 224.0765
ARG_OF_PERICENTER = 178.8848
MEAN_ANOMALY   = 181.2162

EPHEMERIS_TYPE = 0
CLASSIFICATION_TYPE = U
NORAD_CAT_ID   = 65729
ELEMENT_SET_NO = 999
REV_AT_EPOCH   = 1044
BSTAR          = .13578E-2
MEAN_MOTION_DOT = .14385E-2
MEAN_MOTION_DDOT = 0

CCSDS_OMM_VERS = 2.0
CREATION_DATE  = 
ORIGINATOR     = 

OBJECT_NAME    = 1998-067XJ
OBJECT_ID      = 1998-067XJ
CENTER_NAME    = EARTH
REF_FRAME      = TEME
TIME_SYSTEM    = UTC
MEAN_ELEMENT_THEORY = SGP/SGP4

EPOCH          = 2025-11-25T02:12:56.389248
MEAN_MOTION    = 15.91735483
ECCENTRICITY   = .00123966
INCLINATION    = 51.6184
RA_OF_ASC_NODE = 221.9008
ARG_OF_PERICENTER = 182.4641
MEAN_ANOMALY   = 177.6306

EPHEMERIS_TYPE = 0
CLASSIFICATION_TYPE = U
NORAD_CAT_ID   = 65730
ELEMENT_SET_NO = 999
REV_AT_EPOCH   = 1044
BSTAR          = .27350579E-2
MEAN_MOTION_DOT = .918179E-2
MEAN_MOTION_DDOT = .36681018E-3

CCSDS_OMM_VERS = 2.0
CREATION_DATE  = 
ORIGINATOR     = 

OBJECT_NAME    = 1998-067XK
OBJECT_ID      = 1998-067XK
CENTER_NAME    = EARTH
REF_FRAME      = TEME
TIME_SYSTEM    = UTC
MEAN_ELEMENT_THEORY = SGP/SGP4

EPOCH          = 2025-11-25T02:18:06.874560
MEAN_MOTION    = 15.62013873
ECCENTRICITY   = .00060876
INCLINATION    = 51.6290
RA_OF_ASC_NODE = 226.4795
ARG_OF_PERICENTER = 152.4661
MEAN_ANOMALY   = 207.6657

EPHEMERIS_TYPE = 0
CLASSIFICATION_TYPE = U
NORAD_CAT_ID   = 65731
ELEMENT_SET_NO = 999
REV_AT_EPOCH   = 1038
BSTAR          = .10146763E-2
MEAN_MOTION_DOT = .90943E-3
MEAN_MOTION_DDOT = 0

CCSDS_OMM_VERS = 2.0
CREATION_DATE  = 
ORIGINATOR     = 

OBJECT_NAME    = RSP-03
OBJECT_ID      = 1998-067XL
CENTER_NAME    = EARTH
REF_FRAME      = TEME
TIME_SYSTEM    = UTC
MEAN_ELEMENT_THEORY = SGP/SGP4

EPOCH          = 2025-11-25T03:02:46.290624
MEAN_MOTION    = 15.63889416
ECCENTRICITY   = .00068575
INCLINATION    = 51.6285
RA_OF_ASC_NODE = 225.9317
ARG_OF_PERICENTER = 154.1951
MEAN_ANOMALY   = 205.9387

EPHEMERIS_TYPE = 0
CLASSIFICATION_TYPE = U
NORAD_CAT_ID   = 65732
ELEMENT_SET_NO = 999
REV_AT_EPOCH   = 1040
BSTAR          = .1208572E-2
MEAN_MOTION_DOT = .117113E-2
MEAN_MOTION_DDOT = 0

CCSDS_OMM_VERS = 2.0
CREATION_DATE  = 
ORIGINATOR     = 

OBJECT_NAME    = GHS-01
OBJECT_ID      = 1998-067XM
CENTER_NAME    = EARTH
REF_FRAME      = TEME
TIME_SYSTEM    = UTC
MEAN_ELEMENT_THEORY = SGP/SGP4

EPOCH          = 2025-11-25T03:08:41.821440
MEAN_MOTION    = 15.67520461
ECCENTRICITY   = .00067514
INCLINATION    = 51.6287
RA_OF_ASC_NODE = 225.2110
ARG_OF_PERICENTER = 176.0216
MEAN_ANOMALY   = 184.0835

EPHEMERIS_TYPE = 0
CLASSIFICATION_TYPE = U
NORAD_CAT_ID   = 65733
ELEMENT_SET_NO = 999
REV_AT_EPOCH   = 1041
BSTAR          = .15075392E-2
MEAN_MOTION_DOT = .170259E-2
MEAN_MOTION_DDOT = 0

CCSDS_OMM_VERS = 2.0
CREATION_DATE  = 
ORIGINATOR     = 

OBJECT_NAME    = YOTSUBA-KULOVER
OBJECT_ID      = 1998-067XN
CENTER_NAME    = EARTH
REF_FRAME      = TEME
TIME_SYSTEM    = UTC
MEAN_ELEMENT_THEORY = SGP/SGP4

EPOCH          = 2025-11-25T03:18:06.752160
MEAN_MOTION    = 15.56702083
ECCENTRICITY   = .00024187
INCLINATION    = 51.6302
RA_OF_ASC_NODE = 228.2532
ARG_OF_PERICENTER = 127.4758
MEAN_ANOMALY   = 232.6454

EPHEMERIS_TYPE = 0
CLASSIFICATION_TYPE = U
NORAD_CAT_ID   = 65941
ELEMENT_SET_NO = 999
REV_AT_EPOCH   = 711
BSTAR          = .99427292E-3
MEAN_MOTION_DOT = .72537E-3
MEAN_MOTION_DDOT = 0

CCSDS_OMM_VERS = 2.0
CREATION_DATE  = 
ORIGINATOR     = 

OBJECT_NAME    = BOTAN
OBJECT_ID      = 1998-067XP
CENTER_NAME    = EARTH
REF_FRAME      = TEME
TIME_SYSTEM    = UTC
MEAN_ELEMENT_THEORY = SGP/SGP4

EPOCH          = 2025-11-25T02:37:47.727552
MEAN_MOTION    = 15.58820715
ECCENTRICITY   = .00047223
INCLINATION    = 51.6298
RA_OF_ASC_NODE = 228.0671
ARG_OF_PERICENTER = 130.8647
MEAN_ANOMALY   = 229.2756

EPHEMERIS_TYPE = 0
CLASSIFICATION_TYPE = U
NORAD_CAT_ID   = 65942
ELEMENT_SET_NO = 999
REV_AT_EPOCH   = 711
BSTAR          = .12591899E-2
MEAN_MOTION_DOT = .10001E-2
MEAN_MOTION_DDOT = 0

CCSDS_OMM_VERS = 2.0
CREATION_DATE  = 
ORIGINATOR     = 

OBJECT_NAME    = E-KAGAKU-1
OBJECT_ID      = 1998-067XQ
CENTER_NAME    = EARTH
REF_FRAME      = TEME
TIME_SYSTEM    = UTC
MEAN_ELEMENT_THEORY = SGP/SGP4

EPOCH          = 2025-11-25T03:17:41.331552
MEAN_MOTION    = 15.56681668
ECCENTRICITY   = .00039621
INCLINATION    = 51.6305
RA_OF_ASC_NODE = 228.2538
ARG_OF_PERICENTER = 114.1858
MEAN_ANOMALY   = 245.9549

EPHEMERIS_TYPE = 0
CLASSIFICATION_TYPE = U
NORAD_CAT_ID   = 65943
ELEMENT_SET_NO = 999
REV_AT_EPOCH   = 711
BSTAR          = .99785891E-3
MEAN_MOTION_DOT = .72759E-3
MEAN_MOTION_DDOT = 0

CCSDS_OMM_VERS = 2.0
CREATION_DATE  = 
ORIGINATOR     = 

OBJECT_NAME    = HRC MONOBLOCK CAMERA
OBJECT_ID      = 1998-067XR
CENTER_NAME    = EARTH
REF_FRAME      = TEME
TIME_SYSTEM    = UTC
MEAN_ELEMENT_THEORY = SGP/SGP4

EPOCH          = 2025-11-25T06:43:57.248544
MEAN_MOTION    = 15.52605893
ECCENTRICITY   = .00047072
INCLINATION    = 51.6295
RA_OF_ASC_NODE = 228.4551
ARG_OF_PERICENTER = 114.6049
MEAN_ANOMALY   = 245.5431

EPHEMERIS_TYPE = 0
CLASSIFICATION_TYPE = U
NORAD_CAT_ID   = 66052
ELEMENT_SET_NO = 999
REV_AT_EPOCH   = 612
BSTAR          = .67240228E-3
MEAN_MOTION_DOT = .41884E-3
MEAN_MOTION_DDOT = 0

CCSDS_OMM_VERS = 2.0
CREATION_DATE  = 
ORIGINATOR     = 

OBJECT_NAME    = HTV-X1
OBJECT_ID      = 2025-241A
CENTER_NAME    = EARTH
REF_FRAME      = TEME
TIME_SYSTEM    = UTC
MEAN_ELEMENT_THEORY = SGP/SGP4

EPOCH          = 2025-11-25T04:33:23.066784
MEAN_MOTION    = 15.49065492
ECCENTRICITY   = .00038559
INCLINATION    = 51.6313
RA_OF_ASC_NODE = 229.3494
ARG_OF_PERICENTER = 165.5942
MEAN_ANOMALY   = 194.5157

EPHEMERIS_TYPE = 0
CLASSIFICATION_TYPE = U
NORAD_CAT_ID   = 66174
ELEMENT_SET_NO = 999
REV_AT_EPOCH   = 145
BSTAR          = .26139988E-3
MEAN_MOTION_DOT = .14011E-3
MEAN_MOTION_DDOT = 0

